start=new Date('2023-06-30T00:00:00.000Z').valueOf();
sats=[{"PERIOD":"95.591","OBJECT_TYPE":"PAYLOAD","TIME_SYSTEM":"UTC","ARG_OF_PERICENTER":"84.3169","FILE":"3945748","MEAN_MOTION_DDOT":"0.0000000000000","SEMIMAJOR_AXIS":"6925.291","ECCENTRICITY":"0.00008990","INCLINATION":"53.0535","MEAN_MOTION_DOT":"0.00013239","NORAD_CAT_ID":"45375","REV_AT_EPOCH":"18138","APOAPSIS":"547.778","CLASSIFICATION_TYPE":"U","BSTAR":"0.00090552000000","GP_ID":"234625002","CENTER_NAME":"EARTH","REF_FRAME":"TEME","EPOCH":"2023-06-29T10:53:56.814720","TLE_LINE1":"1 45375U 20019R   23180.45412980  .00013239  00000-0  90552-3 0  9995","OBJECT_ID":"2020-019R","ELEMENT_SET_NO":"999","LAUNCH_DATE":"2020-03-18","RA_OF_ASC_NODE":"265.0262","EPHEMERIS_TYPE":"0","COUNTRY_CODE":"US","MEAN_MOTION":"15.06418877","DECAY_DATE":null,"OBJECT_NAME":"STARLINK-1302","MEAN_ANOMALY":"275.7922","PERIAPSIS":"546.533","MEAN_ELEMENT_THEORY":"SGP4","RCS_SIZE":"LARGE","SITE":"AFETR","TLE_LINE2":"2 45375  53.0535 265.0262 0000899  84.3169 275.7922 15.06418877181389"},{"MEAN_MOTION_DDOT":"0.0000000000000","FILE":"3945749","ARG_OF_PERICENTER":"101.2311","TIME_SYSTEM":"UTC","OBJECT_TYPE":"PAYLOAD","PERIOD":"95.591","GP_ID":"234624515","BSTAR":"0.00071911000000","CLASSIFICATION_TYPE":"U","APOAPSIS":"547.804","REV_AT_EPOCH":"18138","NORAD_CAT_ID":"45376","MEAN_MOTION_DOT":"0.00010452","INCLINATION":"53.0536","ECCENTRICITY":"0.00009420","SEMIMAJOR_AXIS":"6925.287","COUNTRY_CODE":"US","EPHEMERIS_TYPE":"0","LAUNCH_DATE":"2020-03-18","RA_OF_ASC_NODE":"264.9426","OBJECT_ID":"2020-019S","ELEMENT_SET_NO":"999","TLE_LINE1":"1 45376U 20019S   23180.47255457  .00010452  00000-0  71911-3 0  9994","EPOCH":"2023-06-29T11:20:28.714848","REF_FRAME":"TEME","CENTER_NAME":"EARTH","SITE":"AFETR","TLE_LINE2":"2 45376  53.0536 264.9426 0000942 101.2311 258.8784 15.06420248181381","RCS_SIZE":"LARGE","MEAN_ELEMENT_THEORY":"SGP4","MEAN_ANOMALY":"258.8784","PERIAPSIS":"546.499","OBJECT_NAME":"STARLINK-1304","DECAY_DATE":null,"MEAN_MOTION":"15.06420248"},{"BSTAR":"0.00126060000000","GP_ID":"234630996","CLASSIFICATION_TYPE":"U","REV_AT_EPOCH":"18141","NORAD_CAT_ID":"45377","APOAPSIS":"547.724","SEMIMAJOR_AXIS":"6925.280","INCLINATION":"53.0533","MEAN_MOTION_DOT":"0.00018556","ECCENTRICITY":"0.00008360","MEAN_MOTION_DDOT":"0.0000000000000","FILE":"3945997","OBJECT_TYPE":"PAYLOAD","TIME_SYSTEM":"UTC","ARG_OF_PERICENTER":"71.4063","PERIOD":"95.591","RCS_SIZE":"LARGE","MEAN_ELEMENT_THEORY":"SGP4","SITE":"AFETR","TLE_LINE2":"2 45377  53.0533 264.2332 0000836  71.4063 288.7017 15.06422229181418","PERIAPSIS":"546.566","MEAN_ANOMALY":"288.7017","OBJECT_NAME":"STARLINK-1305","DECAY_DATE":null,"MEAN_MOTION":"15.06422229","COUNTRY_CODE":"US","OBJECT_ID":"2020-019T","ELEMENT_SET_NO":"999","LAUNCH_DATE":"2020-03-18","EPHEMERIS_TYPE":"0","RA_OF_ASC_NODE":"264.2332","TLE_LINE1":"1 45377U 20019T   23180.63105611  .00018556  00000-0  12606-2 0  9997","EPOCH":"2023-06-29T15:08:43.247904","CENTER_NAME":"EARTH","REF_FRAME":"TEME"},{"OBJECT_ID":"2020-019U","ELEMENT_SET_NO":"999","LAUNCH_DATE":"2020-03-18","RA_OF_ASC_NODE":"265.1709","EPHEMERIS_TYPE":"0","COUNTRY_CODE":"US","CENTER_NAME":"EARTH","REF_FRAME":"TEME","EPOCH":"2023-06-29T10:06:10.635552","TLE_LINE1":"1 45378U 20019U   23180.42095643  .00010251  00000-0  70577-3 0  9994","OBJECT_NAME":"STARLINK-1310","MEAN_ANOMALY":"266.8409","PERIAPSIS":"546.546","MEAN_ELEMENT_THEORY":"SGP4","RCS_SIZE":"LARGE","SITE":"AFETR","TLE_LINE2":"2 45378  53.0526 265.1709 0000895  93.2682 266.8409 15.06415549181388","MEAN_MOTION":"15.06415549","DECAY_DATE":null,"FILE":"3945749","MEAN_MOTION_DDOT":"0.0000000000000","PERIOD":"95.591","OBJECT_TYPE":"PAYLOAD","TIME_SYSTEM":"UTC","ARG_OF_PERICENTER":"93.2682","CLASSIFICATION_TYPE":"U","BSTAR":"0.00070577000000","GP_ID":"234625023","SEMIMAJOR_AXIS":"6925.301","ECCENTRICITY":"0.00008950","INCLINATION":"53.0526","MEAN_MOTION_DOT":"0.00010251","NORAD_CAT_ID":"45378","REV_AT_EPOCH":"18138","APOAPSIS":"547.786"},{"PERIAPSIS":"546.378","MEAN_ANOMALY":"283.6678","OBJECT_NAME":"STARLINK-1319","RCS_SIZE":"LARGE","MEAN_ELEMENT_THEORY":"SGP4","TLE_LINE2":"2 45379  53.0537 265.1597 0001086  76.4432 283.6678 15.06427204181381","SITE":"AFETR","DECAY_DATE":null,"MEAN_MOTION":"15.06427204","OBJECT_ID":"2020-019V","ELEMENT_SET_NO":"999","EPHEMERIS_TYPE":"0","LAUNCH_DATE":"2020-03-18","RA_OF_ASC_NODE":"265.1597","COUNTRY_CODE":"US","CENTER_NAME":"EARTH","REF_FRAME":"TEME","TLE_LINE1":"1 45379U 20019V   23180.42463745  .00015205  00000-0  10367-2 0  9991","EPOCH":"2023-06-29T10:11:28.675680","CLASSIFICATION_TYPE":"U","BSTAR":"0.00103670000000","GP_ID":"234622361","SEMIMAJOR_AXIS":"6925.265","MEAN_MOTION_DOT":"0.00015205","INCLINATION":"53.0537","ECCENTRICITY":"0.00010860","REV_AT_EPOCH":"18138","NORAD_CAT_ID":"45379","APOAPSIS":"547.882","MEAN_MOTION_DDOT":"0.0000000000000","FILE":"3945652","PERIOD":"95.590","TIME_SYSTEM":"UTC","OBJECT_TYPE":"PAYLOAD","ARG_OF_PERICENTER":"76.4432"},{"DECAY_DATE":null,"MEAN_MOTION":"15.06410601","PERIAPSIS":"546.531","MEAN_ANOMALY":"266.0811","OBJECT_NAME":"STARLINK-1207","RCS_SIZE":"LARGE","MEAN_ELEMENT_THEORY":"SGP4","TLE_LINE2":"2 45380  53.0542 245.1648 0000938  94.0285 266.0811 15.06410601181669","SITE":"AFETR","CENTER_NAME":"EARTH","REF_FRAME":"TEME","TLE_LINE1":"1 45380U 20019W   23180.42280191  .00005003  00000-0  35444-3 0  9994","EPOCH":"2023-06-29T10:08:50.085024","ELEMENT_SET_NO":"999","OBJECT_ID":"2020-019W","EPHEMERIS_TYPE":"0","LAUNCH_DATE":"2020-03-18","RA_OF_ASC_NODE":"245.1648","COUNTRY_CODE":"US","SEMIMAJOR_AXIS":"6925.316","MEAN_MOTION_DOT":"0.00005003","INCLINATION":"53.0542","ECCENTRICITY":"0.00009380","REV_AT_EPOCH":"18166","NORAD_CAT_ID":"45380","APOAPSIS":"547.831","CLASSIFICATION_TYPE":"U","BSTAR":"0.00035444000000","GP_ID":"234625569","PERIOD":"95.591","TIME_SYSTEM":"UTC","OBJECT_TYPE":"PAYLOAD","ARG_OF_PERICENTER":"94.0285","MEAN_MOTION_DDOT":"0.0000000000000","FILE":"3945763"},{"REF_FRAME":"TEME","CENTER_NAME":"EARTH","EPOCH":"2023-06-28T12:07:12.399168","TLE_LINE1":"1 45381U 20019X   23179.50500462  .00007404  00000-0  51542-3 0  9992","EPHEMERIS_TYPE":"0","LAUNCH_DATE":"2020-03-18","RA_OF_ASC_NODE":"249.2848","ELEMENT_SET_NO":"999","OBJECT_ID":"2020-019X","COUNTRY_CODE":"US","MEAN_MOTION":"15.06401353","DECAY_DATE":null,"OBJECT_NAME":"STARLINK-1258","MEAN_ANOMALY":"269.7126","PERIAPSIS":"546.551","SITE":"AFETR","TLE_LINE2":"2 45381  53.0540 249.2848 0000951  90.3972 269.7126 15.06401353181519","MEAN_ELEMENT_THEORY":"SGP4","RCS_SIZE":"LARGE","PERIOD":"95.592","ARG_OF_PERICENTER":"90.3972","OBJECT_TYPE":"PAYLOAD","TIME_SYSTEM":"UTC","FILE":"3945219","MEAN_MOTION_DDOT":"0.0000000000000","ECCENTRICITY":"0.00009510","MEAN_MOTION_DOT":"0.00007404","INCLINATION":"53.0540","SEMIMAJOR_AXIS":"6925.344","APOAPSIS":"547.868","NORAD_CAT_ID":"45381","REV_AT_EPOCH":"18151","CLASSIFICATION_TYPE":"U","GP_ID":"234611636","BSTAR":"0.00051542000000"},{"PERIOD":"94.455","TIME_SYSTEM":"UTC","OBJECT_TYPE":"PAYLOAD","ARG_OF_PERICENTER":"45.4060","MEAN_MOTION_DDOT":"0.0000000000000","FILE":"3945741","SEMIMAJOR_AXIS":"6870.338","MEAN_MOTION_DOT":"0.00038129","INCLINATION":"53.0217","ECCENTRICITY":"0.00018560","REV_AT_EPOCH":"18169","NORAD_CAT_ID":"45382","APOAPSIS":"493.478","CLASSIFICATION_TYPE":"U","BSTAR":"0.00153520000000","GP_ID":"234624437","CENTER_NAME":"EARTH","REF_FRAME":"TEME","TLE_LINE1":"1 45382U 20019Y   23180.36850414  .00038129  00000-0  15352-2 0  9990","EPOCH":"2023-06-29T08:50:38.757696","ELEMENT_SET_NO":"999","OBJECT_ID":"2020-019Y","RA_OF_ASC_NODE":"229.4214","LAUNCH_DATE":"2020-03-18","EPHEMERIS_TYPE":"0","COUNTRY_CODE":"US","DECAY_DATE":null,"MEAN_MOTION":"15.24528677","PERIAPSIS":"490.928","MEAN_ANOMALY":"314.7087","OBJECT_NAME":"STARLINK-1264","RCS_SIZE":"LARGE","MEAN_ELEMENT_THEORY":"SGP4","SITE":"AFETR","TLE_LINE2":"2 45382  53.0217 229.4214 0001856  45.4060 314.7087 15.24528677181697"},{"MEAN_MOTION_DOT":"0.00007601","INCLINATION":"53.0531","ECCENTRICITY":"0.00008910","SEMIMAJOR_AXIS":"6925.295","APOAPSIS":"547.777","REV_AT_EPOCH":"18165","NORAD_CAT_ID":"45383","CLASSIFICATION_TYPE":"U","GP_ID":"234624944","BSTAR":"0.00052839000000","PERIOD":"95.591","ARG_OF_PERICENTER":"100.5563","OBJECT_TYPE":"PAYLOAD","TIME_SYSTEM":"UTC","MEAN_MOTION_DDOT":"0.0000000000000","FILE":"3945741","DECAY_DATE":null,"MEAN_MOTION":"15.06417517","PERIAPSIS":"546.543","MEAN_ANOMALY":"259.5526","OBJECT_NAME":"STARLINK-1266","TLE_LINE2":"2 45383  53.0531 245.1493 0000891 100.5563 259.5526 15.06417517181650","SITE":"AFETR","RCS_SIZE":"LARGE","MEAN_ELEMENT_THEORY":"SGP4","REF_FRAME":"TEME","CENTER_NAME":"EARTH","TLE_LINE1":"1 45383U 20019Z   23180.42647608  .00007601  00000-0  52839-3 0  9990","EPOCH":"2023-06-29T10:14:07.533312","LAUNCH_DATE":"2020-03-18","RA_OF_ASC_NODE":"245.1493","EPHEMERIS_TYPE":"0","OBJECT_ID":"2020-019Z","ELEMENT_SET_NO":"999","COUNTRY_CODE":"US"},{"INCLINATION":"53.0531","MEAN_MOTION_DOT":"0.00003934","ECCENTRICITY":"0.00009260","SEMIMAJOR_AXIS":"6925.324","APOAPSIS":"547.830","REV_AT_EPOCH":"18165","NORAD_CAT_ID":"45384","CLASSIFICATION_TYPE":"U","GP_ID":"234624442","BSTAR":"0.00028280000000","PERIOD":"95.592","ARG_OF_PERICENTER":"106.6101","TIME_SYSTEM":"UTC","OBJECT_TYPE":"PAYLOAD","MEAN_MOTION_DDOT":"0.0000000000000","FILE":"3945741","DECAY_DATE":null,"MEAN_MOTION":"15.06408014","PERIAPSIS":"546.548","MEAN_ANOMALY":"253.4989","OBJECT_NAME":"STARLINK-1267","SITE":"AFETR","TLE_LINE2":"2 45384  53.0531 245.1908 0000926 106.6101 253.4989 15.06408014181654","RCS_SIZE":"LARGE","MEAN_ELEMENT_THEORY":"SGP4","REF_FRAME":"TEME","CENTER_NAME":"EARTH","TLE_LINE1":"1 45384U 20019AA  23180.41447715  .00003934  00000-0  28280-3 0  9995","EPOCH":"2023-06-29T09:56:50.825760","RA_OF_ASC_NODE":"245.1908","LAUNCH_DATE":"2020-03-18","EPHEMERIS_TYPE":"0","OBJECT_ID":"2020-019AA","ELEMENT_SET_NO":"999","COUNTRY_CODE":"US"}];
